OBJECT_NAME,OBJECT_ID,EPOCH,MEAN_MOTION,ECCENTRICITY,INCLINATION,RA_OF_ASC_NODE,ARG_OF_PERICENTER,MEAN_ANOMALY,EPHEMERIS_TYPE,CLASSIFICATION_TYPE,NORAD_CAT_ID,ELEMENT_SET_NO,REV_AT_EPOCH,BSTAR,MEAN_MOTION_DOT,MEAN_MOTION_DDOT
FENGYUN 3D,2017-072A,2026-07-17T14:13:03.734112,14.19743708,.0001437,99.0147,173.5673,9.8804,350.2400,0,U,43010,999,44930,-.12160567E-3,-.304E-5,0
NOAA 20 (JPSS-1),2017-073A,2026-07-17T14:13:00.497568,14.19516714,.00014783,98.7772,137.7857,121.9234,238.2086,0,U,43013,999,44878,.31241812E-4,.22E-6,0
GOES 17,2018-022A,2026-07-17T09:25:31.425312,1.00270880,.00005967,1.0128,85.2242,72.6392,189.2281,0,U,43226,999,3072,0,-.193E-5,0
SENTINEL-3B,2018-039A,2026-07-17T04:55:36.576480,14.26736730,.00011929,98.6235,265.3046,119.8366,240.2933,0,U,43437,999,42840,.38460351E-4,.49E-6,0
FENGYUN 2H,2018-050A,2026-07-17T15:21:34.590816,1.00266974,.00022809,3.1079,78.7138,133.4643,32.7622,0,U,43491,999,2974,0,-.137E-5,0
METOP-C,2018-087A,2026-07-15T13:47:48.761088,14.21519167,.0002216,98.6630,255.6574,93.2289,266.9142,0,U,43689,999,39886,.44045E-4,.53E-6,0
GEO-KOMPSAT-2A,2018-100A,2026-07-17T12:10:18.799392,1.00273401,.00022812,0.0319,166.1558,290.0894,149.9033,0,U,43823,999,2793,0,-.353E-5,0
METEOR-M2 2,2019-038A,2026-07-17T14:10:56.282016,14.24373396,.0000578,98.9160,186.3279,357.6606,2.4569,0,U,44387,999,36562,.71681389E-4,.12E-5,0
ARKTIKA-M 1,2021-016A,2026-07-14T09:46:38.558208,2.00611590,.7297332,63.2662,53.6722,270.0591,14.4994,0,U,47719,999,3933,0,-.301E-5,0
FENGYUN 3E,2021-062A,2026-07-17T13:45:00.002880,14.19906262,.00021537,98.7497,201.6433,34.6431,325.4885,0,U,49008,999,26089,.26735783E-4,.13E-6,0
GOES 18,2022-021A,2026-07-17T14:20:03.326208,1.00271942,.00004387,0.0143,128.8784,42.9250,201.6142,0,U,51850,999,689,0,.87E-6,0
NOAA 21 (JPSS-2),2022-150A,2026-07-17T13:17:57.752160,14.19541244,.00028648,98.7059,136.8334,100.5071,259.6428,0,U,54234,999,19085,.2253151E-4,.4E-7,0
METEOSAT-12 (MTG-I1),2022-170C,2026-07-17T14:58:59.592576,1.00268411,.00039102,0.7277,20.1427,81.3738,58.3177,0,U,54743,999,1328,0,-.18E-6,0
TIANMU-1 03,2023-039A,2026-07-17T15:09:17.300736,15.48085659,.00023717,97.5244,13.8133,19.2031,340.9308,0,U,55973,999,18554,.1616046E-3,.8373E-4,0
TIANMU-1 04,2023-039B,2026-07-17T14:36:48.051072,15.48714416,.00027811,97.5185,12.9459,3.3555,356.7714,0,U,55974,999,18555,.17172134E-3,.9103E-4,0
TIANMU-1 05,2023-039C,2026-07-17T14:43:44.422176,15.48010997,.00027468,97.5230,13.3983,39.5641,320.5809,0,U,55975,999,18552,.16393621E-3,.8474E-4,0
TIANMU-1 06,2023-039D,2026-07-17T14:44:29.866848,15.48610418,.00028193,97.5237,14.0655,30.0316,330.1096,0,U,55976,999,18555,.16559243E-3,.8742E-4,0
FENGYUN 3G,2023-055A,2026-07-17T12:50:19.946112,15.53855978,.00069676,49.9910,189.4963,67.0583,293.1119,0,U,56232,999,18472,.20691069E-3,.1314E-3,0
METEOR-M2 3,2023-091A,2026-07-17T14:12:52.858080,14.24049037,.00051369,98.6067,252.9458,84.9294,275.2471,0,U,57166,999,15884,.9504904E-5,-.21E-6,0
TIANMU-1 07,2023-101A,2026-07-17T13:51:58.799232,15.30130886,.00035925,97.2573,248.5518,59.7163,300.4433,0,U,57399,999,16629,.10809886E-3,.3078E-4,0
TIANMU-1 08,2023-101B,2026-07-17T14:37:59.889216,15.30134800,.00043786,97.2562,248.3492,40.0725,320.0839,0,U,57400,999,16629,.10781461E-3,.307E-4,0
TIANMU-1 09,2023-101C,2026-07-17T14:13:04.941984,15.30176392,.00042032,97.2520,247.7327,59.3379,300.8276,0,U,57401,999,16629,.11377918E-3,.3248E-4,0
TIANMU-1 10,2023-101D,2026-07-17T15:01:26.459616,15.30150149,.00054437,97.2600,248.8471,47.5630,312.6070,0,U,57402,999,16629,.1116557E-3,.3184E-4,0
FENGYUN 3F,2023-111A,2026-07-17T15:02:15.243648,14.19943661,.00012263,98.6824,268.0661,75.7614,284.3699,0,U,57490,999,15318,.21661769E-4,.3E-7,0
ARKTIKA-M 2,2023-198A,2026-07-15T04:12:00.091584,2.00608092,.69107365,63.2178,151.2342,267.3397,18.7345,0,U,58584,999,1888,0,.129E-5,0
TIANMU-1 11,2023-205A,2026-07-17T14:06:06.731424,15.27277087,.00068787,97.3441,219.6723,251.2253,108.8240,0,U,58645,999,14216,.10250663E-3,.2667E-4,0
TIANMU-1 12,2023-205B,2026-07-17T15:01:06.284352,15.27109425,.00060132,97.3430,219.4559,223.8061,136.2701,0,U,58646,999,14215,.10619948E-3,.2751E-4,0
TIANMU-1 13,2023-205C,2026-07-17T14:14:55.228128,15.27101915,.00060653,97.3458,219.7052,202.6274,157.4698,0,U,58647,999,14214,.10482533E-3,.2714E-4,0
TIANMU-1 14,2023-205D,2026-07-17T13:52:20.889120,15.27146043,.00066654,97.3394,218.8477,210.2874,149.7980,0,U,58648,999,14214,.11136121E-3,.2892E-4,0
TIANMU-1 19,2023-208A,2026-07-17T14:20:40.013376,15.31997233,.00048337,97.4530,315.0658,189.4264,170.6888,0,U,58660,999,14198,.14357228E-3,.4357E-4,0
