FENGYUN 3D              
1 43010U 17072A   26198.59240433 -.00000304  00000+0 -12161-3 0  9993
2 43010  99.0147 173.5673 0001437   9.8804 350.2400 14.19743708449304
NOAA 20 (JPSS-1)        
1 43013U 17073A   26198.59236687  .00000022  00000+0  31242-4 0  9990
2 43013  98.7772 137.7857 0001478 121.9234 238.2086 14.19516714448782
GOES 17                 
1 43226U 18022A   26198.39272483 -.00000193  00000+0  00000+0 0  9996
2 43226   1.0128  85.2242 0000596  72.6392 189.2281  1.00270880 30722
SENTINEL-3B             
1 43437U 18039A   26198.20528445  .00000049  00000+0  38460-4 0  9995
2 43437  98.6235 265.3046 0001192 119.8366 240.2933 14.26736730428409
FENGYUN 2H              
1 43491U 18050A   26198.63998369 -.00000137  00000+0  00000+0 0  9994
2 43491   3.1079  78.7138 0002280 133.4643  32.7622  1.00266974 29742
METOP-C                 
1 43689U 18087A   26196.57486992  .00000053  00000+0  44045-4 0  9996
2 43689  98.6630 255.6574 0002216  93.2289 266.9142 14.21519167398863
GEO-KOMPSAT-2A          
1 43823U 18100A   26198.50716203 -.00000353  00000+0  00000+0 0  9990
2 43823   0.0319 166.1558 0002281 290.0894 149.9033  1.00273401 27930
METEOR-M2 2             
1 44387U 19038A   26198.59092919  .00000120  00000+0  71681-4 0  9996
2 44387  98.9160 186.3279 0000578 357.6606   2.4569 14.24373396365620
ARKTIKA-M 1             
1 47719U 21016A   26195.40739072 -.00000301  00000+0  00000+0 0  9996
2 47719  63.2662  53.6722 7297332 270.0591  14.4994  2.00611590 39330
FENGYUN 3E              
1 49008U 21062A   26198.57291670  .00000013  00000+0  26736-4 0  9996
2 49008  98.7497 201.6433 0002153  34.6431 325.4885 14.19906262260898
GOES 18                 
1 51850U 22021A   26198.59726072  .00000087  00000+0  00000+0 0  9993
2 51850   0.0143 128.8784 0000438  42.9250 201.6142  1.00271942  6899
NOAA 21 (JPSS-2)        
1 54234U 22150A   26198.55414065  .00000004  00000+0  22532-4 0  9995
2 54234  98.7059 136.8334 0002864 100.5071 259.6428 14.19541244190854
METEOSAT-12 (MTG-I1)    
1 54743U 22170C   26198.62430084 -.00000018  00000+0  00000+0 0  9996
2 54743   0.7277  20.1427 0003910  81.3738  58.3177  1.00268411 13285
TIANMU-1 03             
1 55973U 23039A   26198.63145024  .00008373  00000+0  16160-3 0  9994
2 55973  97.5244  13.8133 0002371  19.2031 340.9308 15.48085659185541
TIANMU-1 04             
1 55974U 23039B   26198.60888948  .00009103  00000+0  17172-3 0  9997
2 55974  97.5185  12.9459 0002781   3.3555 356.7714 15.48714416185554
TIANMU-1 05             
1 55975U 23039C   26198.61370859  .00008474  00000+0  16394-3 0  9991
2 55975  97.5230  13.3983 0002746  39.5641 320.5809 15.48010997185525
TIANMU-1 06             
1 55976U 23039D   26198.61423457  .00008742  00000+0  16559-3 0  9996
2 55976  97.5237  14.0655 0002819  30.0316 330.1096 15.48610418185555
FENGYUN 3G              
1 56232U 23055A   26198.53495308  .00013140  00000+0  20691-3 0  9995
2 56232  49.9910 189.4963 0006967  67.0583 293.1119 15.53855978184723
METEOR-M2 3             
1 57166U 23091A   26198.59227845 -.00000021  00000+0  95049-5 0  9993
2 57166  98.6067 252.9458 0005136  84.9294 275.2471 14.24049037158847
TIANMU-1 07             
1 57399U 23101A   26198.57776388  .00003078  00000+0  10810-3 0  9997
2 57399  97.2573 248.5518 0003592  59.7163 300.4433 15.30130886166297
TIANMU-1 08             
1 57400U 23101B   26198.60972094  .00003070  00000+0  10781-3 0  9995
2 57400  97.2562 248.3492 0004378  40.0725 320.0839 15.30134800166295
TIANMU-1 09             
1 57401U 23101C   26198.59241831  .00003248  00000+0  11378-3 0  9992
2 57401  97.2520 247.7327 0004203  59.3379 300.8276 15.30176392166298
TIANMU-1 10             
1 57402U 23101D   26198.62600069  .00003184  00000+0  11166-3 0  9993
2 57402  97.2600 248.8471 0005443  47.5630 312.6070 15.30150149166291
FENGYUN 3F              
1 57490U 23111A   26198.62656532  .00000003  00000+0  21662-4 0  9997
2 57490  98.6824 268.0661 0001226  75.7614 284.3699 14.19943661153187
ARKTIKA-M 2             
1 58584U 23198A   26196.17500106  .00000129  00000+0  00000+0 0  9997
2 58584  63.2178 151.2342 6910736 267.3397  18.7345  2.00608092 18886
TIANMU-1 11             
1 58645U 23205A   26198.58757791  .00002667  00000+0  10251-3 0  9997
2 58645  97.3441 219.6723 0006878 251.2253 108.8240 15.27277087142160
TIANMU-1 12             
1 58646U 23205B   26198.62576718  .00002751  00000+0  10620-3 0  9995
2 58646  97.3430 219.4559 0006013 223.8061 136.2701 15.27109425142153
TIANMU-1 13             
1 58647U 23205C   26198.59369477  .00002714  00000+0  10483-3 0  9990
2 58647  97.3458 219.7052 0006065 202.6274 157.4698 15.27101915142148
TIANMU-1 14             
1 58648U 23205D   26198.57801955  .00002892  00000+0  11136-3 0  9994
2 58648  97.3394 218.8477 0006665 210.2874 149.7980 15.27146043142145
TIANMU-1 19             
1 58660U 23208A   26198.59768534  .00004357  00000+0  14357-3 0  9994
2 58660  97.4530 315.0658 0004833 189.4264 170.6888 15.31997233141989
